{"type": "FeatureCollection", "features": [ {"type": "Feature", "properties": {"norad_id": 31820, "name": "FENGYUN 1C DEB", "group": "fengyun-1c-debris", "lat": -52.209394989076664, "lon": -18.76075090279866, "alt_km": 605.8744520891269, "timestamp": "2025-12-26T04:40:06.070880+00:00", "meta": {"OBJECT_NAME": "FENGYUN 1C DEB", "OBJECT_ID": "1999-025CHJ", "EPOCH": "2025-12-24T22:39:13.801536", "MEAN_MOTION": 14.92466842, "ECCENTRICITY": 0.01491077, "INCLINATION": 98.9598, "RA_OF_ASC_NODE": 171.557, "ARG_OF_PERICENTER": 332.7718, "MEAN_ANOMALY": 26.5734, "EPHEMERIS_TYPE": 0, "CLASSIFICATION_TYPE": "U", "NORAD_CAT_ID": 31820, "ELEMENT_SET_NO": 999, "REV_AT_EPOCH": 98438, "BSTAR": 0.001067845, "MEAN_MOTION_DOT": 0.00013536, "MEAN_MOTION_DDOT": 0}, "tle": {"line1": "1 31820U 99025CHJ 25358.94390974  .00013536  00000+0  10678-2 0  9998", "line2": "2 31820  98.9598 171.5570 0149107 332.7718  26.5734 14.92466842984388"}}, "geometry": {"type": "Point", "coordinates": [-18.76075090279866, -52.209394989076664]}}, {"type": "Feature", "properties": {"norad_id": 31821, "name": "FENGYUN 1C DEB", "group": "fengyun-1c-debris", "lat": -22.83199836196344, "lon": -111.96527588930611, "alt_km": 600.6371125796923, "timestamp": "2025-12-26T04:40:06.070892+00:00", "meta": {"OBJECT_NAME": "FENGYUN 1C DEB", "OBJECT_ID": "1999-025CHK", "EPOCH": "2025-12-25T15:27:08.538912", "MEAN_MOTION": 14.4242262, "ECCENTRICITY": 0.0218017, "INCLINATION": 98.1552, "RA_OF_ASC_NODE": 244.0465, "ARG_OF_PERICENTER": 335.6094, "MEAN_ANOMALY": 23.4899, "EPHEMERIS_TYPE": 0, "CLASSIFICATION_TYPE": "U", "NORAD_CAT_ID": 31821, "ELEMENT_SET_NO": 999, "REV_AT_EPOCH": 93847, "BSTAR": 0.0046875, "MEAN_MOTION_DOT": 0.0002066, "MEAN_MOTION_DDOT": 0}, "tle": {"line1": "1 31821U 99025CHK 25359.64384883  .00020660  00000+0  46875-2 0  9993", "line2": "2 31821  98.1552 244.0465 0218017 335.6094  23.4899 14.42422620938474"}}, "geometry": {"type": "Point", "coordinates": [-111.96527588930611, -22.83199836196344]}}, {"type": "Feature", "properties": {"norad_id": 31823, "name": "FENGYUN 1C DEB", "group": "fengyun-1c-debris", "lat": -27.02675126184251, "lon": -96.38969852127397, "alt_km": 656.6079098378204, "timestamp": "2025-12-26T04:40:06.070903+00:00", "meta": {"OBJECT_NAME": "FENGYUN 1C DEB", "OBJECT_ID": "1999-025CHM", "EPOCH": "2025-12-22T11:15:51.236928", "MEAN_MOTION": 14.65842433, "ECCENTRICITY": 0.0037269, "INCLINATION": 99.5081, "RA_OF_ASC_NODE": 84.2081, "ARG_OF_PERICENTER": 190.6283, "MEAN_ANOMALY": 169.4133, "EPHEMERIS_TYPE": 0, "CLASSIFICATION_TYPE": "U", "NORAD_CAT_ID": 31823, "ELEMENT_SET_NO": 999, "REV_AT_EPOCH": 96860, "BSTAR": 0.0018213497, "MEAN_MOTION_DOT": 9.997e-05, "MEAN_MOTION_DDOT": 0}, "tle": {"line1": "1 31823U 99025CHM 25356.46934302  .00009997  00000+0  18213-2 0  9994", "line2": "2 31823  99.5081  84.2081 0037269 190.6283 169.4133 14.65842433968606"}}, "geometry": {"type": "Point", "coordinates": [-96.38969852127397, -27.02675126184251]}}, {"type": "Feature", "properties": {"norad_id": 31825, "name": "FENGYUN 1C DEB", "group": "fengyun-1c-debris", "lat": -56.9398572784011, "lon": 12.874673216079508, "alt_km": 708.0420826681393, "timestamp": "2025-12-26T04:40:06.070913+00:00", "meta": {"OBJECT_NAME": "FENGYUN 1C DEB", "OBJECT_ID": "1999-025CHP", "EPOCH": "2025-12-25T18:47:55.699584", "MEAN_MOTION": 14.21689928, "ECCENTRICITY": 0.01650169, "INCLINATION": 98.591, "RA_OF_ASC_NODE": 359.0446, "ARG_OF_PERICENTER": 300.3693, "MEAN_ANOMALY": 58.1258, "EPHEMERIS_TYPE": 0, "CLASSIFICATION_TYPE": "U", "NORAD_CAT_ID": 31825, "ELEMENT_SET_NO": 999, "REV_AT_EPOCH": 95807, "BSTAR": 0.00065956217, "MEAN_MOTION_DOT": 1.618e-05, "MEAN_MOTION_DDOT": 0}, "tle": {"line1": "1 31825U 99025CHP 25359.78328356  .00001618  00000+0  65956-3 0  9999", "line2": "2 31825  98.5910 359.0446 0165016 300.3693  58.1258 14.21689928958075"}}, "geometry": {"type": "Point", "coordinates": [12.874673216079508, -56.9398572784011]}}, {"type": "Feature", "properties": {"norad_id": 31826, "name": "FENGYUN 1C DEB", "group": "fengyun-1c-debris", "lat": 48.814486657010704, "lon": -19.021337223046707, "alt_km": 839.1237084570366, "timestamp": "2025-12-26T04:40:06.070923+00:00", "meta": {"OBJECT_NAME": "FENGYUN 1C DEB", "OBJECT_ID": "1999-025CHQ", "EPOCH": "2025-12-25T10:32:47.068224", "MEAN_MOTION": 14.19293647, "ECCENTRICITY": 0.0124552, "INCLINATION": 98.6268, "RA_OF_ASC_NODE": 350.2347, "ARG_OF_PERICENTER": 152.674, "MEAN_ANOMALY": 2.4935, "EPHEMERIS_TYPE": 0, "CLASSIFICATION_TYPE": "U", "NORAD_CAT_ID": 31826, "ELEMENT_SET_NO": 999, "REV_AT_EPOCH": 95994, "BSTAR": 0.00031305, "MEAN_MOTION_DOT": 6.68e-06, "MEAN_MOTION_DDOT": 0}, "tle": {"line1": "1 31826U 99025CHQ 25359.43943366  .00000668  00000+0  31305-3 0  9991", "line2": "2 31826  98.6268 350.2347 0124552 152.6740   2.4935 14.19293647959944"}}, "geometry": {"type": "Point", "coordinates": [-19.021337223046707, 48.814486657010704]}}, {"type": "Feature", "properties": {"norad_id": 31829, "name": "FENGYUN 1C DEB", "group": "fengyun-1c-debris", "lat": -22.210330055576833, "lon": -14.31060044358326, "alt_km": 903.4585172403958, "timestamp": "2025-12-26T04:40:06.070933+00:00", "meta": {"OBJECT_NAME": "FENGYUN 1C DEB", "OBJECT_ID": "1999-025CHT", "EPOCH": "2025-12-24T17:12:19.539648", "MEAN_MOTION": 13.88695775, "ECCENTRICITY": 0.01693816, "INCLINATION": 98.8357, "RA_OF_ASC_NODE": 167.9296, "ARG_OF_PERICENTER": 131.8905, "MEAN_ANOMALY": 245.5675, "EPHEMERIS_TYPE": 0, "CLASSIFICATION_TYPE": "U", "NORAD_CAT_ID": 31829, "ELEMENT_SET_NO": 999, "REV_AT_EPOCH": 94314, "BSTAR": 0.00035778714, "MEAN_MOTION_DOT": 4.44e-06, "MEAN_MOTION_DDOT": 0}, "tle": {"line1": "1 31829U 99025CHT 25358.71689282  .00000444  00000+0  35779-3 0  9999", "line2": "2 31829  98.8357 167.9296 0169381 131.8905 245.5675 13.88695775943144"}}, "geometry": {"type": "Point", "coordinates": [-14.31060044358326, -22.210330055576833]}}, {"type": "Feature", "properties": {"norad_id": 31830, "name": "FENGYUN 1C DEB", "group": "fengyun-1c-debris", "lat": -42.46275515716823, "lon": 114.03630280431973, "alt_km": 851.9679486349614, "timestamp": "2025-12-26T04:40:06.070943+00:00", "meta": {"OBJECT_NAME": "FENGYUN 1C DEB", "OBJECT_ID": "1999-025CHU", "EPOCH": "2025-12-24T06:08:59.338176", "MEAN_MOTION": 13.83469721, "ECCENTRICITY": 0.01836759, "INCLINATION": 99.1628, "RA_OF_ASC_NODE": 103.6538, "ARG_OF_PERICENTER": 283.5033, "MEAN_ANOMALY": 103.7457, "EPHEMERIS_TYPE": 0, "CLASSIFICATION_TYPE": "U", "NORAD_CAT_ID": 31830, "ELEMENT_SET_NO": 999, "REV_AT_EPOCH": 92899, "BSTAR": 0.0020237075, "MEAN_MOTION_DOT": 2.494e-05, "MEAN_MOTION_DDOT": 0}, "tle": {"line1": "1 31830U 99025CHU 25358.25624234  .00002494  00000+0  20237-2 0  9995", "line2": "2 31830  99.1628 103.6538 0183675 283.5033 103.7457 13.83469721928990"}}, "geometry": {"type": "Point", "coordinates": [114.03630280431973, -42.46275515716823]}}, {"type": "Feature", "properties": {"norad_id": 31834, "name": "FENGYUN 1C DEB", "group": "fengyun-1c-debris", "lat": -26.10478378654551, "lon": -136.53899537885718, "alt_km": 838.9232335051693, "timestamp": "2025-12-26T04:40:06.070955+00:00", "meta": {"OBJECT_NAME": "FENGYUN 1C DEB", "OBJECT_ID": "1999-025CHY", "EPOCH": "2025-12-24T20:16:32.664000", "MEAN_MOTION": 14.03164507, "ECCENTRICITY": 0.01622839, "INCLINATION": 98.3667, "RA_OF_ASC_NODE": 218.0839, "ARG_OF_PERICENTER": 43.5121, "MEAN_ANOMALY": 317.872, "EPHEMERIS_TYPE": 0, "CLASSIFICATION_TYPE": "U", "NORAD_CAT_ID": 31834, "ELEMENT_SET_NO": 999, "REV_AT_EPOCH": 63880, "BSTAR": 0.00036532336, "MEAN_MOTION_DOT": 6.01e-06, "MEAN_MOTION_DDOT": 0}, "tle": {"line1": "1 31834U 99025CHY 25358.84482250  .00000601  00000+0  36532-3 0  9998", "line2": "2 31834  98.3667 218.0839 0162283  43.5121 317.8720 14.03164507638803"}}, "geometry": {"type": "Point", "coordinates": [-136.53899537885718, -26.10478378654551]}}, {"type": "Feature", "properties": {"norad_id": 31837, "name": "FENGYUN 1C DEB", "group": "fengyun-1c-debris", "lat": 66.35123266418869, "lon": -85.11361797116253, "alt_km": 663.3544399667444, "timestamp": "2025-12-26T04:40:06.070965+00:00", "meta": {"OBJECT_NAME": "FENGYUN 1C DEB", "OBJECT_ID": "1999-025CJB", "EPOCH": "2025-12-18T11:29:15.674496", "MEAN_MOTION": 14.82330224, "ECCENTRICITY": 0.00931656, "INCLINATION": 98.1015, "RA_OF_ASC_NODE": 68.0911, "ARG_OF_PERICENTER": 359.156, "MEAN_ANOMALY": 0.9481, "EPHEMERIS_TYPE": 0, "CLASSIFICATION_TYPE": "U", "NORAD_CAT_ID": 31837, "ELEMENT_SET_NO": 999, "REV_AT_EPOCH": 98444, "BSTAR": 0.00086076485, "MEAN_MOTION_DOT": 7.369e-05, "MEAN_MOTION_DDOT": 0}, "tle": {"line1": "1 31837U 99025CJB 25352.47865364  .00007369  00000+0  86076-3 0  9991", "line2": "2 31837  98.1015  68.0911 0093165 359.1560   0.9481 14.82330224984446"}}, "geometry": {"type": "Point", "coordinates": [-85.11361797116253, 66.35123266418869]}}, {"type": "Feature", "properties": {"norad_id": 31838, "name": "FENGYUN 1C DEB", "group": "fengyun-1c-debris", "lat": -79.21788951158607, "lon": 104.39271068027662, "alt_km": 849.9876794474003, "timestamp": "2025-12-26T04:40:06.070975+00:00", "meta": {"OBJECT_NAME": "FENGYUN 1C DEB", "OBJECT_ID": "1999-025CJC", "EPOCH": "2025-12-17T08:26:31.079040", "MEAN_MOTION": 14.21147066, "ECCENTRICITY": 0.00383301, "INCLINATION": 98.7181, "RA_OF_ASC_NODE": 41.9841, "ARG_OF_PERICENTER": 82.4051, "MEAN_ANOMALY": 338.6922, "EPHEMERIS_TYPE": 0, "CLASSIFICATION_TYPE": "U", "NORAD_CAT_ID": 31838, "ELEMENT_SET_NO": 999, "REV_AT_EPOCH": 64642, "BSTAR": 0.00054487511, "MEAN_MOTION_DOT": 1.15e-05, "MEAN_MOTION_DDOT": 0}, "tle": {"line1": "1 31838U 99025CJC 25351.35174860  .00001150  00000+0  54488-3 0  9996", "line2": "2 31838  98.7181  41.9841 0038330  82.4051 338.6922 14.21147066646420"}}, "geometry": {"type": "Point", "coordinates": [104.39271068027662, -79.21788951158607]}}]}